SatCatId,ObjectName,LaunchYear,OrbitalPeriod,LaunchMass,StatusCode,Status,UcsData,OrbitClass,LaunchSiteCountry,Owner,UseType,Purpose,LaunchVehicleClass,TLE1,TLE2
51795,STARLINK-3586,2022,95.44,260.0,+,Active,1,LEO,USA,USA,Commercial,Communications,Falcon,1 51795U 22017AD  22345.05975653 -.00000972  00000+0 -42902-4 0  9995,2 51795  53.2180 267.1371 0003995  26.2316 333.8877 15.08842933 45080
51796,STARLINK-3630,2022,95.44,260.0,+,Active,1,LEO,USA,USA,Commercial,Communications,Falcon,1 51796U 22017AE  22345.17751964  .00009086  00000+0  58822-3 0  9996,2 51796  53.2166 266.6022 0002370  36.1711 323.9441 15.08839754 45092
51797,STARLINK-3627,2022,95.43,260.0,+,Active,1,LEO,USA,USA,Commercial,Communications,Falcon,1 51797U 22017AF  22345.19946154  .00017920  00000+0  11376-2 0  9994,2 51797  53.2158 266.5105 0002286  43.9823 316.1350 15.08954400 45157
51798,STARLINK-3634,2022,95.44,260.0,+,Active,1,LEO,USA,USA,Commercial,Communications,Falcon,1 51798U 22017AG  22345.24007511  .00006532  00000+0  42806-3 0  9996,2 51798  53.2173 266.3156 0002656  27.0228 333.0902 15.08844357 45152
51799,STARLINK-3637,2022,95.44,260.0,+,Active,1,LEO,USA,USA,Commercial,Communications,Falcon,1 51799U 22017AH  22345.05239423 -.00000585  00000+0 -18627-4 0  9994,2 51799  53.2191 267.1771 0002950  27.6417 332.4732 15.08847499 45084
51800,STARLINK-3600,2022,95.44,260.0,+,Active,1,LEO,USA,USA,Commercial,Communications,Falcon,1 51800U 22017AJ  22345.16742514  .00000537  00000+0  51849-4 0  9997,2 51800  53.2189 266.6529 0003519  25.9937 334.1231 15.08850551 45142
51801,STARLINK-3592,2022,95.44,260.0,+,Active,1,LEO,USA,USA,Commercial,Communications,Falcon,1 51801U 22017AK  22345.11495501  .00000220  00000+0  31922-4 0  9993,2 51801  53.2184 266.8787 0002948  32.6119 327.5055 15.08846000 45096
51802,STARLINK-3557,2022,95.44,260.0,+,Active,1,LEO,USA,USA,Commercial,Communications,Falcon,1 51802U 22017AL  22345.20054909 -.00003815  00000+0 -22163-3 0  9998,2 51802  53.2161 266.5068 0002660  28.5961 331.5176 15.08849833 45109
51803,STARLINK-3544,2022,95.44,260.0,+,Active,1,LEO,USA,USA,Commercial,Communications,Falcon,1 51803U 22017AM  22345.17015569 -.00000955  00000+0 -41850-4 0  9991,2 51803  53.2171 266.6343 0002983  28.4658 331.6497 15.08841042 45097
51804,STARLINK-3601,2022,95.44,260.0,+,Active,1,LEO,USA,USA,Commercial,Communications,Falcon,1 51804U 22017AN  22345.11677662 -.00000998  00000+0 -44608-4 0  9995,2 51804  53.2167 246.8815 0002335  30.5403 329.5725 15.08842170 45329
51805,STARLINK-3605,2022,95.44,260.0,+,Active,1,LEO,USA,USA,Commercial,Communications,Falcon,1 51805U 22017AP  22345.04688347  .00026499  00000+0  16761-2 0  9999,2 51805  53.2154 247.1848 0002517  27.1935 332.9189 15.08854907 45402
51806,STARLINK-3581,2022,95.44,260.0,+,Active,1,LEO,USA,USA,Commercial,Communications,Falcon,1 51806U 22017AQ  22345.12691636  .00001939  00000+0  13991-3 0  9999,2 51806  53.2149 256.8401 0002886  22.0741 338.0375 15.08838172 45238
51807,STARLINK-3606,2022,95.44,260.0,+,Active,1,LEO,USA,USA,Commercial,Communications,Falcon,1 51807U 22017AR  22345.20050724  .00001614  00000+0  11948-3 0  9996,2 51807  53.2167 256.5145 0002633  47.4003 312.7211 15.08843003 45296
51808,STARLINK-3609,2022,95.44,260.0,+,Active,1,LEO,USA,USA,Commercial,Communications,Falcon,1 51808U 22017AS  22345.05331394  .00008620  00000+0  55899-3 0  9992,2 51808  53.2157 257.1647 0002420  29.7108 330.4021 15.08843349 45124
51809,STARLINK-3607,2022,95.44,260.0,+,Active,1,LEO,USA,USA,Commercial,Communications,Falcon,1 51809U 22017AT  22345.19683246 -.00000090  00000+0  12444-4 0  9998,2 51809  53.2164 256.5211 0002706  28.4383 331.6757 15.08840022 45248
51810,STARLINK-3613,2022,95.44,260.0,+,Active,1,LEO,USA,USA,Commercial,Communications,Falcon,1 51810U 22017AU  22345.14351223 -.00000590  00000+0 -18968-4 0  9995,2 51810  53.2175 246.7615 0002312  40.4097 319.7067 15.08835514 45375
51811,STARLINK-3569,2022,95.44,260.0,+,Active,1,LEO,USA,USA,Commercial,Communications,Falcon,1 51811U 22017AV  22345.12322423 -.00000168  00000+0  75801-5 0  9994,2 51811  53.2167 256.8515 0002402  31.5824 328.5312 15.08851748 45139
51812,STARLINK-3610,2022,95.44,260.0,+,Active,1,LEO,USA,USA,Commercial,Communications,Falcon,1 51812U 22017AW  22344.99904286  .00002138  00000+0  15243-3 0  9992,2 51812  53.2190 247.4083 0003044  28.0295 332.0861 15.08831512 45235
51813,STARLINK-3552,2022,95.44,260.0,+,Active,1,LEO,USA,USA,Commercial,Communications,Falcon,1 51813U 22017AX  22345.17663862  .00005183  00000+0  34354-3 0  9993,2 51813  53.2167 246.6133 0002741  26.5270 333.5862 15.08838246 45267
51814,STARLINK-3599,2022,95.44,260.0,+,Active,1,LEO,USA,USA,Commercial,Communications,Falcon,1 51814U 22017AY  22345.12415675 -.00001154  00000+0 -54373-4 0  9996,2 51814  53.2199 246.8559 0002792  31.7507 328.3653 15.08843149 45251
51815,STARLINK-3604,2022,95.44,260.0,+,Active,1,LEO,USA,USA,Commercial,Communications,Falcon,1 51815U 22017AZ  22345.12782353 -.00000349  00000+0 -38235-5 0  9992,2 51815  53.2166 246.8382 0001653  47.8799 312.2334 15.08840214 45254
51816,STARLINK-3603,2022,95.44,260.0,+,Active,1,LEO,USA,USA,Commercial,Communications,Falcon,1 51816U 22017BA  22345.18670227 -.00001141  00000+0 -53573-4 0  9997,2 51816  53.2169 246.5665 0001904  45.6524 314.4624 15.08842238 45311
51817,STARLINK-3596,2022,91.33,260.0,+,Active,1,LEO,USA,USA,Commercial,Communications,Falcon,1 51817U 22017BB  22345.46180076 -.00003738  00000+0 -18830-4 0  9998,2 51817  53.1992 144.0467 0003753   7.2262 352.8813 15.76710942 46828
51822,L-SAR 01B,2022,96.75,3200.0,+,Active,1,LEO,PRC,China,Government,Earth Observation,Long March,1 51822U 22018A   22341.44999741  .00000245  00000+0  32248-4 0  9993,2 51822  97.8078 346.3469 0002341  63.2080 296.9388 14.88424534 42164
51824,OBJECT A,2022,95.3,39.0,+,Active,1,LEO,PRC,China,Commercial,Technology Development,Long March,1 51824U 22019A   22345.51297637  .00005271  00000+0  31851-3 0  9995,2 51824  97.4967  56.4608 0019801   8.9080  46.7713 15.10943539 43361
51825,OBJECT B,2022,95.31,55.0,+,Active,1,LEO,PRC,China,Government,Earth Observation,Long March,1 51825U 22019B   22345.49134353  .00004403  00000+0  26739-3 0  9993,2 51825  97.4952  56.4468 0018154   5.7790  50.7696 15.10878850 43350
51826,OBJECT C,2022,95.24,65.0,+,Active,1,LEO,PRC,China,Government,Earth Observation,Long March,1 51826U 22019C   22345.48579861  .00007952  00000+0  46582-3 0  9990,2 51826  97.4954  56.6295 0017088   7.0681 188.3979 15.11947698 43363
51827,OBJECT D,2022,95.29,62.0,+,Active,1,LEO,PRC,China,Government,Earth Observation,Long March,1 51827U 22019D   22345.45442234  .00004447  00000+0  26831-3 0  9992,2 51827  97.4973  56.5745 0016358   6.9576 115.4677 15.11134356 43358
51828,OBJECT E,2022,95.24,62.0,+,Active,1,LEO,PRC,China,Government,Earth Observation,Long March,1 51828U 22019E   22345.45200178  .00006099  00000+0  35864-3 0  9993,2 51828  97.4968  56.7129 0016825   8.0677 121.7916 15.11912912 43364
51829,OBJECT F,2022,95.16,240.0,+,Active,1,LEO,PRC,China,Commercial,Earth Observation,Long March,1 51829U 22019F   22345.50427133  .00009687  00000+0  54591-3 0  9996,2 51829  97.5007  57.2058 0015620   8.2647 351.8839 15.13302846 43392
51830,OBJECT G,2022,95.15,350.0,+,Active,1,LEO,PRC,China,Commercial,Earth Observation,Long March,1 51830U 22019G   22345.50258606  .00009478  00000+0  53365-3 0  9991,2 51830  97.4934  56.9556 0016045   6.3298 353.8133 15.13334884 43390
51831,OBJECT H,2022,95.23,88.0,+,Active,1,LEO,PRC,China,Commercial,Earth Observation,Long March,1 51831U 22019H   22345.45999741  .00006043  00000+0  35249-3 0  9994,2 51831  97.4974  56.8648 0020437   5.8152 114.1261 15.12148429 43374
51832,OBJECT J,2022,95.35,32.0,+,Active,1,LEO,PRC,China,Commercial,Earth Observation,Long March,1 51832U 22019J   22345.48943928  .00001596  00000+0  10139-3 0  9993,2 51832  97.4964  56.4814 0011221  16.7676  78.1447 15.10222749 43357
51833,OBJECT K,2022,95.19,43.0,+,Active,1,LEO,PRC,China,Commercial,Earth Observation,Long March,1 51833U 22019K   22345.46920139  .00007475  00000+0  42806-3 0  9999,2 51833  97.4949  56.9300 0015030  10.8176 165.0040 15.12815061 43383
51834,OBJECT L,2022,95.23,43.0,+,Active,1,LEO,PRC,China,Commercial,Earth Observation,Long March,1 51834U 22019L   22345.46634259  .00005772  00000+0  33732-3 0  9991,2 51834  97.4971  56.9015 0017319  16.8170 171.9727 15.12151557 43374
51835,OBJECT M,2022,95.23,43.0,+,Active,1,LEO,PRC,China,Commercial,Earth Observation,Long March,1 51835U 22019M   22345.50159904  .00005683  00000+0  33228-3 0  9997,2 51835  97.4972  56.9460 0018180   9.9512  48.8245 15.12127481 43387
51836,OBJECT N,2022,95.13,43.0,+,Active,1,LEO,PRC,China,Commercial,Earth Observation,Long March,1 51836U 22019N   22345.49326686  .00009216  00000+0  51319-3 0  9996,2 51836  97.4969  57.2217 0015128  11.7668  45.5692 15.13751579 43405
51837,OBJECT P,2022,95.12,43.0,+,Active,1,LEO,PRC,China,Commercial,Earth Observation,Long March,1 51837U 22019P   22345.47612821  .00010730  00000+0  59360-3 0  9991,2 51837  97.4926  57.1079 0015125  14.9744 106.0230 15.13942728 43400
51838,OBJECT Q,2022,95.21,43.0,+,Active,1,LEO,PRC,China,Commercial,Earth Observation,Long March,1 51838U 22019Q   22345.48182870  .00006304  00000+0  36585-3 0  9995,2 51838  97.4973  57.0064 0014999  14.5723 182.6075 15.12398911 43389
51839,OBJECT R,2022,95.23,43.0,+,Active,1,LEO,PRC,China,Commercial,Earth Observation,Long March,1 51839U 22019R   22345.49492056  .00005793  00000+0  33920-3 0  9998,2 51839  97.4957  56.9054 0011812   5.0277  89.5181 15.12150108 43386
51840,OBJECT S,2022,95.23,43.0,+,Active,1,LEO,PRC,China,Commercial,Earth Observation,Long March,1 51840U 22019S   22345.48194255  .00004193  00000+0  24641-3 0  9992,2 51840  97.4974  56.9763 0014785   5.5291 115.0955 15.12141209 43383
